ORBCOMM FM05            
1 25117U 97084F   24120.87383364  .00001768  00000+0  56975-3 0  9991
2 25117  45.0134 187.4680 0004255 286.5232  73.5150 14.42628862380851
ORBCOMM FM06            
1 25118U 97084G   24120.93482722  .00001831  00000+0  58828-3 0  9997
2 25118  45.0129 187.3468 0003394 287.8569 241.6765 14.42664795381776
ORBCOMM FM07            
1 25119U 97084H   24120.89291164  .00001786  00000+0  57571-3 0  9994
2 25119  45.0122 188.0779 0005034 282.0166  78.0120 14.42588447381761
ORBCOMM FM03            
1 25158U 98007B   24120.62292934  .00001538  00000+0  61187-3 0  9993
2 25158 107.9726   7.4510 0048482 251.9125 107.6728 14.32118884364782
ORBCOMM FM04            
1 25159U 98007C   24120.96273133  .00001422  00000+0  56786-3 0  9992
2 25159 107.9708  11.0759 0044000 249.3154 110.3264 14.32379266365009
ORBCOMM FM17            
1 25413U 98046A   24120.89598948  .00001547  00000+0  60974-3 0  9996
2 25413  44.9949  45.1341 0003193 313.3794  46.6786 14.33098130343841
ORBCOMM FM18            
1 25414U 98046B   24120.70202385  .00001945  00000+0  71377-3 0  9995
2 25414  44.9941 333.3716 0003943   2.5557 357.5310 14.35844477344763
ORBCOMM FM19            
1 25415U 98046C   24120.87843372  .00001542  00000+0  57784-3 0  9990
2 25415  44.9945 333.9360 0002719 356.1383  18.1646 14.35679283344756
